{
  "type": "FeatureCollection",
  "features": [
    {
      "type": "Feature",
      "properties": {
        "norad_id": 26766,
        "name": "INTELSAT 10 (IS-10)",
        "group": "intelsat",
        "lat": -6.167025297529551,
        "lon": 15.708629657580477,
        "alt_km": 36123.807096790224,
        "timestamp": "2025-12-15T10:55:20.797257+00:00",
        "meta_object_name": "INTELSAT 10 (IS-10)",
        "meta_object_id": "2001-019A",
        "meta_epoch": "2025-12-14T14:02:27.622752",
        "meta_mean_motion": 0.99078028,
        "meta_eccentricity": 0.00077179,
        "meta_inclination": 8.6342,
        "meta_ra_of_asc_node": 61.1391,
        "meta_arg_of_pericenter": 226.5687,
        "meta_mean_anomaly": 137.2498,
        "meta_ephemeris_type": 0,
        "meta_classification_type": "U",
        "meta_norad_cat_id": 26766,
        "meta_element_set_no": 999,
        "meta_rev_at_epoch": 4375,
        "meta_bstar": 0,
        "meta_mean_motion_dot": -2.54e-06,
        "meta_mean_motion_ddot": 0,
        "tle_line1": "1 26766U 01019A   25348.58504193 -.00000254  00000+0  00000+0 0  9995",
        "tle_line2": "2 26766   8.6342  61.1391 0007717 226.5687 137.2498  0.99078028 43757"
      },
      "geometry": {
        "type": "Point",
        "coordinates": [
          15.708629657580477,
          -6.167025297529551
        ]
      }
    },
    {
      "type": "Feature",
      "properties": {
        "norad_id": 26900,
        "name": "INTELSAT 902 (IS-902)",
        "group": "intelsat",
        "lat": 4.672100940911392,
        "lon": -161.8233996891605,
        "alt_km": 35776.65900741386,
        "timestamp": "2025-12-15T10:55:20.797281+00:00",
        "meta_object_name": "INTELSAT 902 (IS-902)",
        "meta_object_id": "2001-039A",
        "meta_epoch": "2025-12-11T04:42:42.842016",
        "meta_mean_motion": 1.00272526,
        "meta_eccentricity": 0.00044264,
        "meta_inclination": 5.6424,
        "meta_ra_of_asc_node": 74.0881,
        "meta_arg_of_pericenter": 184.9809,
        "meta_mean_anomaly": 201.6699,
        "meta_ephemeris_type": 0,
        "meta_classification_type": "U",
        "meta_norad_cat_id": 26900,
        "meta_element_set_no": 999,
        "meta_rev_at_epoch": 8881,
        "meta_bstar": 0,
        "meta_mean_motion_dot": -2.78e-06,
        "meta_mean_motion_ddot": 0,
        "tle_line1": "1 26900U 01039A   25345.19632919 -.00000278  00000+0  00000+0 0  9995",
        "tle_line2": "2 26900   5.6424  74.0881 0004426 184.9809 201.6699  1.00272526 88816"
      },
      "geometry": {
        "type": "Point",
        "coordinates": [
          -161.8233996891605,
          4.672100940911392
        ]
      }
    },
    {
      "type": "Feature",
      "properties": {
        "norad_id": 27380,
        "name": "INTELSAT 904 (IS-904)",
        "group": "intelsat",
        "lat": 3.65893275046855,
        "lon": -143.15158735149768,
        "alt_km": 35785.4714139039,
        "timestamp": "2025-12-15T10:55:20.797298+00:00",
        "meta_object_name": "INTELSAT 904 (IS-904)",
        "meta_object_id": "2002-007A",
        "meta_epoch": "2025-12-14T11:33:26.896320",
        "meta_mean_motion": 1.00272447,
        "meta_eccentricity": 0.0001562,
        "meta_inclination": 6.459,
        "meta_ra_of_asc_node": 71.4126,
        "meta_arg_of_pericenter": 235.2201,
        "meta_mean_anomaly": 278.628,
        "meta_ephemeris_type": 0,
        "meta_classification_type": "U",
        "meta_norad_cat_id": 27380,
        "meta_element_set_no": 999,
        "meta_rev_at_epoch": 4991,
        "meta_bstar": 0,
        "meta_mean_motion_dot": -2.1e-06,
        "meta_mean_motion_ddot": 0,
        "tle_line1": "1 27380U 02007A   25348.48156130 -.00000210  00000+0  00000+0 0  9991",
        "tle_line2": "2 27380   6.4590  71.4126 0001562 235.2201 278.6280  1.00272447 49919"
      },
      "geometry": {
        "type": "Point",
        "coordinates": [
          -143.15158735149768,
          3.65893275046855
        ]
      }
    },
    {
      "type": "Feature",
      "properties": {
        "norad_id": 27426,
        "name": "DIRECTV 5 (TEMPO 1)",
        "group": "intelsat",
        "lat": 3.8437327310762703,
        "lon": 137.9715027311153,
        "alt_km": 35796.4339216394,
        "timestamp": "2025-12-15T10:55:20.797311+00:00",
        "meta_object_name": "DIRECTV 5 (TEMPO 1)",
        "meta_object_id": "2002-023A",
        "meta_epoch": "2025-12-14T21:27:15.024960",
        "meta_mean_motion": 1.00272395,
        "meta_eccentricity": 0.00034192,
        "meta_inclination": 4.4076,
        "meta_ra_of_asc_node": 77.6283,
        "meta_arg_of_pericenter": 200.2517,
        "meta_mean_anomaly": 17.6165,
        "meta_ephemeris_type": 0,
        "meta_classification_type": "U",
        "meta_norad_cat_id": 27426,
        "meta_element_set_no": 999,
        "meta_rev_at_epoch": 8627,
        "meta_bstar": 0,
        "meta_mean_motion_dot": -3.9e-07,
        "meta_mean_motion_ddot": 0,
        "tle_line1": "1 27426U 02023A   25348.89392390 -.00000039  00000+0  00000+0 0  9994",
        "tle_line2": "2 27426   4.4076  77.6283 0003419 200.2517  17.6165  1.00272395 86279"
      },
      "geometry": {
        "type": "Point",
        "coordinates": [
          137.9715027311153,
          3.8437327310762703
        ]
      }
    },
    {
      "type": "Feature",
      "properties": {
        "norad_id": 27438,
        "name": "INTELSAT 905 (IS-905)",
        "group": "intelsat",
        "lat": 3.9724852352430937,
        "lon": 110.83790635282118,
        "alt_km": 35795.497063569266,
        "timestamp": "2025-12-15T10:55:20.797324+00:00",
        "meta_object_name": "INTELSAT 905 (IS-905)",
        "meta_object_id": "2002-027A",
        "meta_epoch": "2025-12-14T04:33:38.635200",
        "meta_mean_motion": 1.00274201,
        "meta_eccentricity": 0.00026501,
        "meta_inclination": 6.2894,
        "meta_ra_of_asc_node": 72.0398,
        "meta_arg_of_pericenter": 202.1249,
        "meta_mean_anomaly": 100.1717,
        "meta_ephemeris_type": 0,
        "meta_classification_type": "U",
        "meta_norad_cat_id": 27438,
        "meta_element_set_no": 999,
        "meta_rev_at_epoch": 4950,
        "meta_bstar": 0,
        "meta_mean_motion_dot": 1.08e-06,
        "meta_mean_motion_ddot": 0,
        "tle_line1": "1 27438U 02027A   25348.19003050  .00000108  00000+0  00000+0 0  9992",
        "tle_line2": "2 27438   6.2894  72.0398 0002650 202.1249 100.1717  1.00274201 49509"
      },
      "geometry": {
        "type": "Point",
        "coordinates": [
          110.83790635282118,
          3.9724852352430937
        ]
      }
    },
    {
      "type": "Feature",
      "properties": {
        "norad_id": 27445,
        "name": "GALAXY 3C (G-3C)",
        "group": "intelsat",
        "lat": 3.128869350915936,
        "lon": 153.29590042452398,
        "alt_km": 35781.2372409156,
        "timestamp": "2025-12-15T10:55:20.797337+00:00",
        "meta_object_name": "GALAXY 3C (G-3C)",
        "meta_object_id": "2002-030A",
        "meta_epoch": "2025-12-14T19:48:54.444096",
        "meta_mean_motion": 1.00271582,
        "meta_eccentricity": 0.00010928,
        "meta_inclination": 3.2695,
        "meta_ra_of_asc_node": 80.4845,
        "meta_arg_of_pericenter": 82.3399,
        "meta_mean_anomaly": 123.2761,
        "meta_ephemeris_type": 0,
        "meta_classification_type": "U",
        "meta_norad_cat_id": 27445,
        "meta_element_set_no": 999,
        "meta_rev_at_epoch": 4464,
        "meta_bstar": 0,
        "meta_mean_motion_dot": -1.34e-06,
        "meta_mean_motion_ddot": 0,
        "tle_line1": "1 27445U 02030A   25348.82563014 -.00000134  00000+0  00000+0 0  9995",
        "tle_line2": "2 27445   3.2695  80.4845 0001092  82.3399 123.2761  1.00271582 44640"
      },
      "geometry": {
        "type": "Point",
        "coordinates": [
          153.29590042452398,
          3.128869350915936
        ]
      }
    },
    {
      "type": "Feature",
      "properties": {
        "norad_id": 27513,
        "name": "INTELSAT 906 (IS-906)",
        "group": "intelsat",
        "lat": -4.494428392930803,
        "lon": -47.7452858995149,
        "alt_km": 35767.29328909774,
        "timestamp": "2025-12-15T10:55:20.797355+00:00",
        "meta_object_name": "INTELSAT 906 (IS-906)",
        "meta_object_id": "2002-041A",
        "meta_epoch": "2025-12-14T20:34:20.091936",
        "meta_mean_motion": 1.00271883,
        "meta_eccentricity": 0.0006226,
        "meta_inclination": 5.3344,
        "meta_ra_of_asc_node": 75.206,
        "meta_arg_of_pericenter": 194.3565,
        "meta_mean_anomaly": 186.9166,
        "meta_ephemeris_type": 0,
        "meta_classification_type": "U",
        "meta_norad_cat_id": 27513,
        "meta_element_set_no": 999,
        "meta_rev_at_epoch": 8518,
        "meta_bstar": 0,
        "meta_mean_motion_dot": 3e-07,
        "meta_mean_motion_ddot": 0,
        "tle_line1": "1 27513U 02041A   25348.85717699  .00000030  00000+0  00000+0 0  9990",
        "tle_line2": "2 27513   5.3344  75.2060 0006226 194.3565 186.9166  1.00271883 85187"
      },
      "geometry": {
        "type": "Point",
        "coordinates": [
          -47.7452858995149,
          -4.494428392930803
        ]
      }
    }
  ]
}